[{"OBJECT_NAME":"STARLINK-5955","OBJECT_ID":"2023-058AB","EPOCH":"2026-03-09T22:06:53.158176","MEAN_MOTION":15.0564693,"ECCENTRICITY":0.00022003,"INCLINATION":97.6045,"RA_OF_ASC_NODE":71.4794,"ARG_OF_PERICENTER":86.3217,"MEAN_ANOMALY":273.8262,"EPHEMERIS_TYPE":0,"CLASSIFICATION_TYPE":"U","NORAD_CAT_ID":56342,"ELEMENT_SET_NO":999,"REV_AT_EPOCH":15823,"BSTAR":-8.4258803e-5,"MEAN_MOTION_DOT":-1.276e-5,"MEAN_MOTION_DDOT":0},{"OBJECT_NAME":"UNKNOWN","OBJECT_ID":"","EPOCH":"2026-03-09T02:53:57.432768","MEAN_MOTION":15.04852502,"ECCENTRICITY":0.0007482,"INCLINATION":86.6587,"RA_OF_ASC_NODE":118.2618,"ARG_OF_PERICENTER":183.1315,"MEAN_ANOMALY":176.9875,"EPHEMERIS_TYPE":0,"CLASSIFICATION_TYPE":"U","NORAD_CAT_ID":82402,"ELEMENT_SET_NO":999,"REV_AT_EPOCH":46745,"BSTAR":0.00051144,"MEAN_MOTION_DOT":7.26e-5,"MEAN_MOTION_DDOT":0}]
